[{"OBJECT_NAME":"YAOGAN-30 02C","OBJECT_ID":"2017-058C","EPOCH":"2026-03-09T23:23:41.320320","MEAN_MOTION":15.0385567,"ECCENTRICITY":0.00042194,"INCLINATION":34.9965,"RA_OF_ASC_NODE":266.8068,"ARG_OF_PERICENTER":49.9722,"MEAN_ANOMALY":310.1357,"EPHEMERIS_TYPE":0,"CLASSIFICATION_TYPE":"U","NORAD_CAT_ID":42947,"ELEMENT_SET_NO":999,"REV_AT_EPOCH":46087,"BSTAR":0.00031396475,"MEAN_MOTION_DOT":4.384e-5,"MEAN_MOTION_DDOT":0},{"OBJECT_NAME":"STARLINK-35105","OBJECT_ID":"2025-200Z","EPOCH":"2026-03-09T18:14:27.829248","MEAN_MOTION":15.05647467,"ECCENTRICITY":1.624e-5,"INCLINATION":97.6018,"RA_OF_ASC_NODE":139.9027,"ARG_OF_PERICENTER":252.9895,"MEAN_ANOMALY":107.1314,"EPHEMERIS_TYPE":0,"CLASSIFICATION_TYPE":"U","NORAD_CAT_ID":65543,"ELEMENT_SET_NO":999,"REV_AT_EPOCH":2914,"BSTAR":0.0001230669,"MEAN_MOTION_DOT":1.715e-5,"MEAN_MOTION_DDOT":0}]
